IRIDIUM 119             
1 42959U 17061E   25279.51813479 -.00000014  00000+0 -12194-4 0  9994
2 42959  86.3960 131.3206 0002246  90.3188 269.8265 14.34216565418459
IRIDIUM 107             
1 42960U 17061F   25279.11855200  .00000095  00000+0  26979-4 0  9993
2 42960  86.3961 131.5077 0002554  82.6374 277.5112 14.34217100418401
IRIDIUM 132             
1 42961U 17061G   25279.33419983  .00000436  00000+0  14873-3 0  9990
2 42961  86.3958 131.3988 0002239  84.3763 275.7688 14.34217625418431
IRIDIUM 136             
1 42962U 17061H   25279.29614263  .00000421  00000+0  14310-3 0  9994
2 42962  86.3960 131.4200 0002317  87.4088 272.7373 14.34216249418444
IRIDIUM 139             
1 42963U 17061J   25279.09318278  .00000434  00000+0  14776-3 0  9990
2 42963  86.3962 131.5628 0002312  81.2346 278.9111 14.34216433418427
IRIDIUM 125             
1 42964U 17061K   25279.28979862  .00000337  00000+0  11318-3 0  9995
2 42964  86.3963 131.5369 0002715  88.3221 271.8286 14.34220115418469
IRIDIUM 135             
1 43070U 17083A   25279.47322964 -.00000184  00000+0 -72718-4 0  9998
2 43070  86.3933  68.0636 0001935  91.6371 268.5047 14.34216741407783
IRIDIUM 138             
1 43071U 17083B   25279.49858338  .00000488  00000+0  16721-3 0  9996
2 43071  86.3921  67.7087 0002391 101.8357 258.3107 14.34224419407776
